#Pass ID: 20250129_123947_METEOR-M2 4
#Satellite: METEOR-M2 4
#Configuration: METEOR-M2 4
#Start time: 2025-01-29 12:39:52.000436

#LorettStation: 1.0.0 05.05.2024
#Station: Regia
#Location: 37.494653 lon 55.929028 lat
#TLE: 1 59051U 24039A   25028.88633424  .00000107  00000+0  67726-4 0  9992
#TLE: 2 59051  98.6313 351.6044 0006873 181.4947 178.6211 14.22329900 47574

#Time	Az	El	Level	SNR
#Closed at: 2025-01-29 12:39:47.002451